MEAN_MOTION;ECCENTRICITY;INCLINATION;RA_OF_ASC_NODE;ARG_OF_PERICENTER;MEAN_ANOMALY;BSTAR;MEAN_MOTION_DOT;MEAN_MOTION_DDOT;TYPE
14.34217262;0.000228;86.4019;349.5916;98.8779;261.2675;1.8634E-5;7.2E-7;0;Iridium
14.34217338;0.0002299;86.4018;349.3295;98.5529;261.5928;1.7796E-5;7.0E-7;0;Iridium
14.34217403;0.0002307;86.4018;349.1839;98.5483;261.5974;1.9718E-5;7.5E-7;0;Iridium
14.34217483;0.0002325;86.4018;348.8927;98.272;261.874;1.9637E-5;7.5E-7;0;Iridium
14.34217547;0.0002331;86.4018;348.7761;98.2946;261.8514;2.1603E-5;8.0E-7;0;Iridium
14.34217599;0.0002337;86.4017;348.6305;98.2212;261.9249;2.2137E-5;8.2E-7;0;Iridium
14.34217614;0.0002351;86.4017;348.4266;98.0142;262.1321;1.9001E-5;7.3E-7;0;Iridium
14.34217718;0.0002367;86.4016;348.1062;97.9049;262.2416;2.2588E-5;8.3E-7;0;Iridium
14.34217718;0.0002367;86.4016;348.1062;97.9049;262.2416;2.2588E-5;8.3E-7;0;Iridium
14.34217711;0.0002376;86.4016;347.9897;97.8719;262.2747;2.0497E-5;7.7E-7;0;Iridium
14.34217691;0.0002391;86.4015;347.6692;97.6337;262.5131;1.7354E-5;6.8E-7;0;Iridium
14.34217691;0.0002391;86.4015;347.6692;97.6337;262.5131;1.7354E-5;6.8E-7;0;Iridium
14.34217737;0.0002395;86.4015;347.5527;97.5863;262.5605;1.7583E-5;6.9E-7;0;Iridium
14.34217877;0.0002404;86.4015;347.3488;97.4217;262.7252;2.303E-5;8.4E-7;0;Iridium
14.34217917;0.0002416;86.4014;347.1158;97.2929;262.8542;2.2615E-5;8.3E-7;0;Iridium
14.34218017;0.0002423;86.4014;346.9409;97.218;262.9291;2.5382E-5;9.1E-7;0;Iridium
14.34218084;0.000244;86.4013;346.7079;97.104;263.0433;2.5367E-5;9.1E-7;0;Iridium
14.342182;0.0002463;86.4013;346.3001;96.5578;263.5898;2.4397E-5;8.8E-7;0;Iridium
14.34218331;0.0002489;86.4012;346.0088;96.0645;264.0834;2.659E-5;9.4E-7;0;Iridium
14.34218343;0.0002491;86.4012;345.9796;96.0237;264.1242;2.6811E-5;9.5E-7;0;Iridium
14.34218345;0.0002497;86.4011;345.8632;95.5012;264.6469;2.3596E-5;8.6E-7;0;Iridium
14.34218442;0.0002517;86.401;345.5719;95.167;264.9813;2.4289E-5;8.8E-7;0;Iridium
14.34218451;0.0002524;86.401;345.4262;94.9976;265.1508;2.133E-5;8.0E-7;0;Iridium
14.34218458;0.0002538;86.4009;345.164;94.527;265.6216;1.6013E-5;6.5E-7;0;Iridium
14.34218491;0.0002542;86.4009;345.0184;94.4191;265.7295;1.4887E-5;6.1E-7;0;Iridium
14.34218594;0.0002556;86.4008;344.727;93.9457;266.2031;1.5619E-5;6.4E-7;0;Iridium
14.34218668;0.0002561;86.4008;344.5814;94.0099;266.1389;1.7841E-5;7.0E-7;0;Iridium
14.34218664;0.0002562;86.4007;344.3774;93.6112;266.5377;1.5087E-5;6.2E-7;0;Iridium
14.3421759;0.0002537;86.4006;344.29;91.6614;268.4873;1.5556E-5;6.3E-7;0;Iridium
14.34217454;0.0002597;86.4007;344.1735;93.283;266.8663;1.4737E-5;6.1E-7;0;Iridium
14.34217273;0.0002608;86.4006;343.9695;93.0253;267.1241;-1.4395E-6;1.6E-7;0;Iridium
14.3421724;0.0002613;86.4006;343.8821;92.9076;267.2419;-9.8613E-7;1.7E-7;0;Iridium
14.34217281;0.0002611;86.4005;343.7947;92.8029;267.3465;-3.7639E-6;9.0E-8;0;Iridium
14.34217337;0.0002611;86.4005;343.649;92.6439;267.5056;-2.8499E-6;1.2E-7;0;Iridium
14.34217335;0.0002616;86.4004;343.3868;92.2418;267.9078;-3.3708E-6;1.0E-7;0;Iridium
14.34217507;0.000263;86.4004;343.0954;91.8751;268.2746;1.4646E-5;6.1E-7;0;Iridium
14.34217523;0.0002629;86.4004;343.0663;91.8639;268.2858;1.5515E-5;6.3E-7;0;Iridium
14.34217601;0.0002635;86.4004;342.9206;91.8557;268.2941;2.0603E-5;7.7E-7;0;Iridium
14.34217637;0.000264;86.4003;342.6584;91.3764;268.7734;1.8789E-5;7.2E-7;0;Iridium
14.34217678;0.0002641;86.4002;342.5127;91.2047;268.9451;1.9145E-5;7.3E-7;0;Iridium
14.34217715;0.0002648;86.4001;342.2213;90.7875;269.3624;1.8332E-5;7.1E-7;0;Iridium
14.34217742;0.0002654;86.4001;342.0756;90.5058;269.6442;1.8446E-5;7.1E-7;0;Iridium
14.34217838;0.0002661;86.4;341.8133;89.9925;270.1576;2.0861E-5;7.8E-7;0;Iridium
14.34217972;0.0002667;86.4;341.6676;89.9781;270.172;2.7905E-5;9.8E-7;0;Iridium
14.34218085;0.0002668;86.3998;341.4053;89.5074;270.6427;3.03E-5;1.05E-6;0;Iridium
14.3421814;0.0002667;86.3998;341.2596;89.3914;270.7587;3.0261E-5;1.05E-6;0;Iridium
14.34218195;0.0002671;86.3996;340.9681;88.933;271.2172;2.7369E-5;9.6E-7;0;Iridium
14.34218199;0.0002671;86.3996;340.939;88.8785;271.2717;2.6428E-5;9.4E-7;0;Iridium
14.34218222;0.0002674;86.3996;340.8224;88.8343;271.316;2.6288E-5;9.3E-7;0;Iridium
14.34218267;0.0002682;86.3994;340.5309;88.3101;271.8402;2.3268E-5;8.5E-7;0;Iridium
14.34218283;0.0002684;86.3994;340.4144;88.2515;271.8989;2.2318E-5;8.2E-7;0;Iridium
14.34218311;0.0002682;86.3993;340.3269;88.0407;272.1096;2.1779E-5;8.1E-7;0;Iridium
14.3421847;0.0002681;86.3991;339.8897;87.3006;272.8497;2.1783E-5;8.1E-7;0;Iridium
14.34218481;0.0002681;86.3991;339.8606;87.2584;272.8919;2.1688E-5;8.1E-7;0;Iridium
14.34218544;0.000268;86.399;339.6565;87.0156;273.1346;2.0723E-5;7.8E-7;0;Iridium
14.34218654;0.0002675;86.3989;339.4525;86.8026;273.3476;2.2602E-5;8.3E-7;0;Iridium
14.34218724;0.0002676;86.3988;339.2193;86.4485;273.7017;2.1407E-5;8.0E-7;0;Iridium
14.3421789;0.0002665;86.3993;339.0435;87.0673;273.0828;2.0227E-5;7.6E-7;0;Iridium
14.3421698;0.0002606;86.3982;338.608;89.1369;271.0125;1.9247E-5;7.4E-7;0;Iridium
14.3421698;0.0002606;86.3982;338.608;89.1369;271.0125;1.9247E-5;7.4E-7;0;Iridium
14.34217023;0.0002697;86.3987;338.403;85.6133;274.5371;1.836E-5;7.1E-7;0;Iridium
14.34217059;0.0002693;86.3986;338.0239;85.9964;274.154;1.1143E-5;5.1E-7;0;Iridium
14.34217066;0.0002693;86.3986;337.9656;85.7411;274.4092;1.0803E-5;5.0E-7;0;Iridium
14.34217217;0.0002686;86.3984;337.5574;84.3608;275.7894;1.6036E-5;6.5E-7;0;Iridium
14.34217378;0.0002678;86.3982;337.1493;83.3997;276.7504;2.0819E-5;7.8E-7;0;Iridium
14.34217425;0.0002668;86.3981;336.9452;83.0804;277.0696;2.129E-5;7.9E-7;0;Iridium
14.34217487;0.0002666;86.398;336.7411;82.9712;277.1787;2.2035E-5;8.1E-7;0;Iridium
14.34217594;0.0002658;86.3979;336.5078;82.761;277.3888;2.5074E-5;9.0E-7;0;Iridium
14.34217594;0.0002658;86.3979;336.5078;82.761;277.3888;2.5074E-5;9.0E-7;0;Iridium
14.34217647;0.0002654;86.3978;336.3037;82.5175;277.6323;2.4854E-5;8.9E-7;0;Iridium
14.34217787;0.0002643;86.3976;335.8954;81.9865;278.1631;2.6005E-5;9.3E-7;0;Iridium
14.34217901;0.000263;86.3974;335.4871;81.437;278.7124;2.5892E-5;9.2E-7;0;Iridium
14.3421799;0.0002615;86.3972;335.1079;80.9625;279.1867;2.4302E-5;8.8E-7;0;Iridium
14.34217998;0.0002612;86.3972;335.0496;80.8848;279.2644;2.3526E-5;8.6E-7;0;Iridium
14.34218095;0.0002597;86.397;334.6704;80.3223;279.8266;2.1377E-5;8.0E-7;0;Iridium
14.34218099;0.0002595;86.397;334.6413;80.327;279.8219;2.1035E-5;7.9E-7;0;Iridium
14.34218248;0.0002586;86.3969;334.2329;79.6761;280.4726;2.0206E-5;7.6E-7;0;Iridium
14.3421837;0.0002573;86.3967;333.8246;79.079;281.0696;1.8442E-5;7.1E-7;0;Iridium
14.34218519;0.0002556;86.3966;333.4454;78.7229;281.4253;1.9451E-5;7.4E-7;0;Iridium
14.34218519;0.0002556;86.3966;333.4454;78.7229;281.4253;1.9451E-5;7.4E-7;0;Iridium
14.34218529;0.0002553;86.3966;333.387;78.6619;281.4864;1.881E-5;7.2E-7;0;Iridium
14.34218585;0.0002541;86.3965;333.2121;78.401;281.7471;1.9044E-5;7.3E-7;0;Iridium
14.34218668;0.0002518;86.3964;332.8037;77.7983;282.3494;1.7283E-5;6.8E-7;0;Iridium
14.34218701;0.0002511;86.3964;332.5995;77.5095;282.6381;1.6336E-5;6.6E-7;0;Iridium
14.34218694;0.000251;86.3963;332.5704;77.48;282.6677;1.5602E-5;6.3E-7;0;Iridium
14.34218742;0.0002486;86.3963;332.1327;77.023;283.1243;1.4126E-5;5.9E-7;0;Iridium
14.34218877;0.0002466;86.3962;331.7535;76.7088;283.4382;1.7126E-5;6.8E-7;0;Iridium
14.34218877;0.0002465;86.3962;331.7243;76.6369;283.5101;1.6937E-5;6.7E-7;0;Iridium
14.34219018;0.0002448;86.396;331.3449;76.0857;284.0611;2.0563E-5;7.7E-7;0;Iridium
14.34219007;0.0002449;86.396;331.2865;76.1469;283.9999;1.9959E-5;7.6E-7;0;Iridium
14.34219122;0.0002426;86.3959;330.9073;75.7751;284.3715;2.1726E-5;8.1E-7;0;Iridium
14.34219222;0.00024;86.3958;330.528;75.4181;284.728;2.3108E-5;8.4E-7;0;Iridium
14.34219231;0.0002396;86.3958;330.4696;75.409;284.7371;2.2805E-5;8.4E-7;0;Iridium
14.34219337;0.0002375;86.3956;330.1194;75.2012;284.9447;2.3742E-5;8.6E-7;0;Iridium
14.34219372;0.0002362;86.3956;329.9443;75.1365;285.0092;2.4062E-5;8.7E-7;0;Iridium
14.34219448;0.0002346;86.3954;329.6817;75.1134;285.0321;2.2751E-5;8.3E-7;0;Iridium
14.34219457;0.0002344;86.3954;329.6525;75.0835;285.062;2.2683E-5;8.3E-7;0;Iridium
14.34219558;0.0002316;86.3953;329.2731;74.74;285.4052;2.1841E-5;8.1E-7;0;Iridium
14.34219568;0.0002316;86.3953;329.244;74.8866;285.2586;2.1874E-5;8.1E-7;0;Iridium
14.34219761;0.0002292;86.3951;328.8353;74.9084;285.2365;2.3769E-5;8.6E-7;0;Iridium
14.34219761;0.0002292;86.3951;328.8353;74.9084;285.2365;2.3769E-5;8.6E-7;0;Iridium
14.34219781;0.000228;86.3951;328.6894;74.9291;285.2157;2.3244E-5;8.5E-7;0;Iridium
14.342186;0.0002307;86.3951;328.3976;76.3172;283.8281;1.905E-5;7.3E-7;0;Iridium
14.34218268;0.0002242;86.3949;328.0182;75.1105;285.0339;1.7375E-5;6.8E-7;0;Iridium
14.3421827;0.000224;86.3949;327.989;75.1205;285.0238;1.689E-5;6.7E-7;0;Iridium
14.34218275;0.0002207;86.3948;327.6096;74.7288;285.4151;1.6094E-5;6.5E-7;0;Iridium
14.342183;0.000219;86.3948;327.4345;74.6878;285.4559;1.5582E-5;6.3E-7;0;Iridium
14.34218135;0.0002177;86.3947;327.1425;74.8384;285.3052;-4.4699E-6;7.0E-8;0;Iridium
14.34218113;0.0002104;86.3946;326.7339;70.4601;289.6822;-9.2821E-7;1.7E-7;0;Iridium
14.34218086;0.0002074;86.3944;326.3545;70.3504;289.7916;-2.2681E-6;1.3E-7;0;Iridium
14.3421806;0.0002059;86.3944;326.1794;70.307;289.8347;-3.2523E-6;1.1E-7;0;Iridium
14.34218043;0.000204;86.3943;325.9167;70.2567;289.8849;-3.737E-6;9.0E-8;0;Iridium
14.34218038;0.0002029;86.3943;325.7707;70.3536;289.7879;-3.3724E-6;1.0E-7;0;Iridium
14.34218045;0.0002011;86.3942;325.5079;70.6133;289.528;-2.7786E-6;1.2E-7;0;Iridium
14.34218028;0.0002;86.3942;325.362;70.7851;289.3561;-3.0543E-6;1.1E-7;0;Iridium
14.34218005;0.0001977;86.3941;325.07;70.768;289.373;-3.7964E-6;9.0E-8;0;Iridium
14.34217978;0.0001967;86.3941;324.9241;70.8208;289.3201;-4.4616E-6;7.0E-8;0;Iridium
14.34217963;0.0001962;86.3941;324.8657;70.7659;289.3749;-5.1912E-6;5.0E-8;0;Iridium
14.3421796;0.000195;86.3941;324.6906;70.81;289.3307;-4.4854E-6;7.0E-8;0;Iridium
14.34217965;0.0001919;86.394;324.2819;70.8691;289.2712;-3.0525E-6;1.1E-7;0;Iridium
